0 COSMOS 1134
1 11542U 79084E   13282.47641172 -.00000030  00000-0 -94044-4 0  5513
2 11542 074.0280 034.2309 0019227 218.2891 270.4284 12.49013073552211
0 COSMOS 1134
1 11542U 79084E   13287.10546023 -.00000010  00000-0  40564-4 0  5534
2 11542 074.0286 028.0898 0019162 211.5693 204.4747 12.49012740552799
0 COSMOS 1134
1 11542U 79084E   13289.11032340  .00000013  00000-0  18965-3 0  5541
2 11542 074.0285 025.4302 0019130 208.6210 219.1753 12.49012591553049
0 COSMOS 1134
1 11542U 79084E   13291.17933968  .00000016  00000-0  21406-3 0  5554
2 11542 074.0283 022.6855 0019099 205.5882 162.3237 12.49012721553304
0 COSMOS 1134
1 11542U 79084E   13293.44843142 -.00000010  00000-0  41138-4 0  5561
2 11542 074.0281 019.6752 0019069 202.2235 285.1325 12.49012915553584
0 COSMOS 1134
1 11542U 79084E   13296.16162352 -.00000024  00000-0 -51112-4 0  5570
2 11542 074.0280 016.0756 0019020 198.2737 244.7351 12.49013163553920
